{
  "type": "FeatureCollection",
  "features": [
    {
      "type": "Feature",
      "properties": {
        "norad_id": 34571,
        "name": "COSMOS 2251 DEB",
        "group": "cosmos-2251-debris",
        "lat": 34.311981432408444,
        "lon": -18.659676043747446,
        "alt_km": 704.7804862198363,
        "timestamp": "2025-12-17T23:38:07.248075+00:00",
        "meta_object_name": "COSMOS 2251 DEB",
        "meta_object_id": "1993-036VH",
        "meta_epoch": "2025-12-16T13:49:32.553408",
        "meta_mean_motion": 14.48871631,
        "meta_eccentricity": 0.00656278,
        "meta_inclination": 74.0389,
        "meta_ra_of_asc_node": 175.2429,
        "meta_arg_of_pericenter": 209.3038,
        "meta_mean_anomaly": 150.4436,
        "meta_ephemeris_type": 0,
        "meta_classification_type": "U",
        "meta_norad_cat_id": 34571,
        "meta_element_set_no": 999,
        "meta_rev_at_epoch": 87349,
        "meta_bstar": 0.0017589053,
        "meta_mean_motion_dot": 6.815e-05,
        "meta_mean_motion_ddot": 0,
        "tle_line1": "1 34571U 93036VH  25350.57607122  .00006815  00000+0  17589-2 0  9997",
        "tle_line2": "2 34571  74.0389 175.2429 0065627 209.3038 150.4436 14.48871631873491"
      },
      "geometry": {
        "type": "Point",
        "coordinates": [
          -18.659676043747446,
          34.311981432408444
        ]
      }
    },
    {
      "type": "Feature",
      "properties": {
        "norad_id": 34572,
        "name": "COSMOS 2251 DEB",
        "group": "cosmos-2251-debris",
        "lat": 28.427506236688647,
        "lon": 114.56818393176367,
        "alt_km": 761.3524668311493,
        "timestamp": "2025-12-17T23:38:07.248085+00:00",
        "meta_object_name": "COSMOS 2251 DEB",
        "meta_object_id": "1993-036VJ",
        "meta_epoch": "2025-12-17T08:51:26.669952",
        "meta_mean_motion": 14.50108121,
        "meta_eccentricity": 0.00622699,
        "meta_inclination": 74.0105,
        "meta_ra_of_asc_node": 106.7968,
        "meta_arg_of_pericenter": 179.7942,
        "meta_mean_anomaly": 237.2131,
        "meta_ephemeris_type": 0,
        "meta_classification_type": "U",
        "meta_norad_cat_id": 34572,
        "meta_element_set_no": 999,
        "meta_rev_at_epoch": 87445,
        "meta_bstar": 0.0020762256,
        "meta_mean_motion_dot": 8.243e-05,
        "meta_mean_motion_ddot": 0,
        "tle_line1": "1 34572U 93036VJ  25351.36905868  .00008243  00000+0  20762-2 0  9998",
        "tle_line2": "2 34572  74.0105 106.7968 0062269 179.7942 237.2131 14.50108121874451"
      },
      "geometry": {
        "type": "Point",
        "coordinates": [
          114.56818393176367,
          28.427506236688647
        ]
      }
    },
    {
      "type": "Feature",
      "properties": {
        "norad_id": 34574,
        "name": "COSMOS 2251 DEB",
        "group": "cosmos-2251-debris",
        "lat": -52.36169308107451,
        "lon": 11.23447194041758,
        "alt_km": 679.6189540838577,
        "timestamp": "2025-12-17T23:38:07.248095+00:00",
        "meta_object_name": "COSMOS 2251 DEB",
        "meta_object_id": "1993-036VL",
        "meta_epoch": "2025-12-17T13:08:07.025856",
        "meta_mean_motion": 14.70657026,
        "meta_eccentricity": 0.00670118,
        "meta_inclination": 74.0694,
        "meta_ra_of_asc_node": 33.8206,
        "meta_arg_of_pericenter": 53.2753,
        "meta_mean_anomaly": 96.7503,
        "meta_ephemeris_type": 0,
        "meta_classification_type": "U",
        "meta_norad_cat_id": 34574,
        "meta_element_set_no": 999,
        "meta_rev_at_epoch": 88849,
        "meta_bstar": 0.00067100666,
        "meta_mean_motion_dot": 4.199e-05,
        "meta_mean_motion_ddot": 0,
        "tle_line1": "1 34574U 93036VL  25351.54730354  .00004199  00000+0  67101-3 0  9991",
        "tle_line2": "2 34574  74.0694  33.8206 0067011  53.2753  96.7503 14.70657026888492"
      },
      "geometry": {
        "type": "Point",
        "coordinates": [
          11.23447194041758,
          -52.36169308107451
        ]
      }
    },
    {
      "type": "Feature",
      "properties": {
        "norad_id": 34576,
        "name": "COSMOS 2251 DEB",
        "group": "cosmos-2251-debris",
        "lat": -11.152494549018831,
        "lon": 125.02431184865836,
        "alt_km": 711.1755034522839,
        "timestamp": "2025-12-17T23:38:07.248105+00:00",
        "meta_object_name": "COSMOS 2251 DEB",
        "meta_object_id": "1993-036VN",
        "meta_epoch": "2025-12-17T10:45:00.046944",
        "meta_mean_motion": 14.55458342,
        "meta_eccentricity": 0.00082152,
        "meta_inclination": 74.0336,
        "meta_ra_of_asc_node": 129.2767,
        "meta_arg_of_pericenter": 266.0884,
        "meta_mean_anomaly": 150.3663,
        "meta_ephemeris_type": 0,
        "meta_classification_type": "U",
        "meta_norad_cat_id": 34576,
        "meta_element_set_no": 999,
        "meta_rev_at_epoch": 88535,
        "meta_bstar": 0.00066309428,
        "meta_mean_motion_dot": 2.858e-05,
        "meta_mean_motion_ddot": 0,
        "tle_line1": "1 34576U 93036VN  25351.44791721  .00002858  00000+0  66309-3 0  9996",
        "tle_line2": "2 34576  74.0336 129.2767 0008215 266.0884 150.3663 14.55458342885358"
      },
      "geometry": {
        "type": "Point",
        "coordinates": [
          125.02431184865836,
          -11.152494549018831
        ]
      }
    },
    {
      "type": "Feature",
      "properties": {
        "norad_id": 34579,
        "name": "COSMOS 2251 DEB",
        "group": "cosmos-2251-debris",
        "lat": 15.033684934921352,
        "lon": -141.46665792969407,
        "alt_km": 742.7150062231867,
        "timestamp": "2025-12-17T23:38:07.248115+00:00",
        "meta_object_name": "COSMOS 2251 DEB",
        "meta_object_id": "1993-036VR",
        "meta_epoch": "2025-12-17T00:53:42.797760",
        "meta_mean_motion": 14.4532044,
        "meta_eccentricity": 0.00275494,
        "meta_inclination": 74.0519,
        "meta_ra_of_asc_node": 215.8921,
        "meta_arg_of_pericenter": 283.8803,
        "meta_mean_anomaly": 203.5477,
        "meta_ephemeris_type": 0,
        "meta_classification_type": "U",
        "meta_norad_cat_id": 34579,
        "meta_element_set_no": 999,
        "meta_rev_at_epoch": 88236,
        "meta_bstar": 0.00034104746,
        "meta_mean_motion_dot": 1.176e-05,
        "meta_mean_motion_ddot": 0,
        "tle_line1": "1 34579U 93036VR  25351.03730090  .00001176  00000+0  34105-3 0  9997",
        "tle_line2": "2 34579  74.0519 215.8921 0027549 283.8803 203.5477 14.45320440882365"
      },
      "geometry": {
        "type": "Point",
        "coordinates": [
          -141.46665792969407,
          15.033684934921352
        ]
      }
    },
    {
      "type": "Feature",
      "properties": {
        "norad_id": 34582,
        "name": "COSMOS 2251 DEB",
        "group": "cosmos-2251-debris",
        "lat": -73.01657204352585,
        "lon": -167.13524347442439,
        "alt_km": 757.7006268583873,
        "timestamp": "2025-12-17T23:38:07.248145+00:00",
        "meta_object_name": "COSMOS 2251 DEB",
        "meta_object_id": "1993-036VU",
        "meta_epoch": "2025-12-17T04:03:40.640832",
        "meta_mean_motion": 14.43348915,
        "meta_eccentricity": 0.00481298,
        "meta_inclination": 74.0201,
        "meta_ra_of_asc_node": 264.139,
        "meta_arg_of_pericenter": 13.3261,
        "meta_mean_anomaly": 346.9154,
        "meta_ephemeris_type": 0,
        "meta_classification_type": "U",
        "meta_norad_cat_id": 34582,
        "meta_element_set_no": 999,
        "meta_rev_at_epoch": 88011,
        "meta_bstar": 0.00062806517,
        "meta_mean_motion_dot": 2.121e-05,
        "meta_mean_motion_ddot": 0,
        "tle_line1": "1 34582U 93036VU  25351.16922038  .00002121  00000+0  62807-3 0  9991",
        "tle_line2": "2 34582  74.0201 264.1390 0048129  13.3261 346.9154 14.43348915880115"
      },
      "geometry": {
        "type": "Point",
        "coordinates": [
          -167.13524347442439,
          -73.01657204352585
        ]
      }
    },
    {
      "type": "Feature",
      "properties": {
        "norad_id": 34588,
        "name": "COSMOS 2251 DEB",
        "group": "cosmos-2251-debris",
        "lat": -50.680802416054945,
        "lon": -121.90964874695383,
        "alt_km": 744.6467865694467,
        "timestamp": "2025-12-17T23:38:07.248156+00:00",
        "meta_object_name": "COSMOS 2251 DEB",
        "meta_object_id": "1993-036WA",
        "meta_epoch": "2025-12-17T11:08:10.254048",
        "meta_mean_motion": 14.42036004,
        "meta_eccentricity": 0.00192483,
        "meta_inclination": 74.043,
        "meta_ra_of_asc_node": 259.5014,
        "meta_arg_of_pericenter": 311.6611,
        "meta_mean_anomaly": 172.3061,
        "meta_ephemeris_type": 0,
        "meta_classification_type": "U",
        "meta_norad_cat_id": 34588,
        "meta_element_set_no": 999,
        "meta_rev_at_epoch": 88018,
        "meta_bstar": 0.00037168467,
        "meta_mean_motion_dot": 1.196e-05,
        "meta_mean_motion_ddot": 0,
        "tle_line1": "1 34588U 93036WA  25351.46400757  .00001196  00000+0  37168-3 0  9992",
        "tle_line2": "2 34588  74.0430 259.5014 0019248 311.6611 172.3061 14.42036004880186"
      },
      "geometry": {
        "type": "Point",
        "coordinates": [
          -121.90964874695383,
          -50.680802416054945
        ]
      }
    }
  ]
}